{
  "type": "FeatureCollection",
  "features": [
    {
      "type": "Feature",
      "properties": {
        "norad_id": 31430,
        "name": "FENGYUN 1C DEB",
        "group": "fengyun-1c-debris",
        "lat": 3.614307482078918,
        "lon": -126.5593907080853,
        "alt_km": 824.1666408246365,
        "timestamp": "2025-12-15T20:48:54.166137+00:00",
        "meta_object_name": "FENGYUN 1C DEB",
        "meta_object_id": "1999-025BTS",
        "meta_epoch": "2025-12-14T03:41:45.734784",
        "meta_mean_motion": 14.25612306,
        "meta_eccentricity": 0.00267521,
        "meta_inclination": 98.744,
        "meta_ra_of_asc_node": 51.1754,
        "meta_arg_of_pericenter": 38.2472,
        "meta_mean_anomaly": 349.778,
        "meta_ephemeris_type": 0,
        "meta_classification_type": "U",
        "meta_norad_cat_id": 31430,
        "meta_element_set_no": 999,
        "meta_rev_at_epoch": 96138,
        "meta_bstar": 0.001079427,
        "meta_mean_motion_dot": 2.522e-05,
        "meta_mean_motion_ddot": 0,
        "tle_line1": "1 31430U 99025BTS 25348.15400156  .00002522  00000+0  10794-2 0  9993",
        "tle_line2": "2 31430  98.7440  51.1754 0026752  38.2472 349.7780 14.25612306961381"
      },
      "geometry": {
        "type": "Point",
        "coordinates": [
          -126.5593907080853,
          3.614307482078918
        ]
      }
    },
    {
      "type": "Feature",
      "properties": {
        "norad_id": 31431,
        "name": "FENGYUN 1C DEB",
        "group": "fengyun-1c-debris",
        "lat": 4.115829790614015,
        "lon": 58.47116829486832,
        "alt_km": 882.7158244041939,
        "timestamp": "2025-12-15T20:48:54.166147+00:00",
        "meta_object_name": "FENGYUN 1C DEB",
        "meta_object_id": "1999-025BTT",
        "meta_epoch": "2025-12-13T14:56:21.998976",
        "meta_mean_motion": 14.03085979,
        "meta_eccentricity": 0.01331698,
        "meta_inclination": 98.5394,
        "meta_ra_of_asc_node": 235.7445,
        "meta_arg_of_pericenter": 92.8803,
        "meta_mean_anomaly": 268.7614,
        "meta_ephemeris_type": 0,
        "meta_classification_type": "U",
        "meta_norad_cat_id": 31431,
        "meta_element_set_no": 999,
        "meta_rev_at_epoch": 94544,
        "meta_bstar": 0.0020056089,
        "meta_mean_motion_dot": 3.335e-05,
        "meta_mean_motion_ddot": 0,
        "tle_line1": "1 31431U 99025BTT 25347.62247684  .00003335  00000+0  20056-2 0  9995",
        "tle_line2": "2 31431  98.5394 235.7445 0133169  92.8803 268.7614 14.03085979945441"
      },
      "geometry": {
        "type": "Point",
        "coordinates": [
          58.47116829486832,
          4.115829790614015
        ]
      }
    },
    {
      "type": "Feature",
      "properties": {
        "norad_id": 31433,
        "name": "FENGYUN 1C DEB",
        "group": "fengyun-1c-debris",
        "lat": -7.837571441644783,
        "lon": -105.62239905105083,
        "alt_km": 747.1184811162311,
        "timestamp": "2025-12-15T20:48:54.166158+00:00",
        "meta_object_name": "FENGYUN 1C DEB",
        "meta_object_id": "1999-025BTV",
        "meta_epoch": "2025-12-14T16:21:03.091392",
        "meta_mean_motion": 14.2545547,
        "meta_eccentricity": 0.01002939,
        "meta_inclination": 98.4103,
        "meta_ra_of_asc_node": 252.0731,
        "meta_arg_of_pericenter": 23.8359,
        "meta_mean_anomaly": 6.1837,
        "meta_ephemeris_type": 0,
        "meta_classification_type": "U",
        "meta_norad_cat_id": 31433,
        "meta_element_set_no": 999,
        "meta_rev_at_epoch": 95580,
        "meta_bstar": 0.0021995356,
        "meta_mean_motion_dot": 5.436e-05,
        "meta_mean_motion_ddot": 0,
        "tle_line1": "1 31433U 99025BTV 25348.68128578  .00005436  00000+0  21995-2 0  9991",
        "tle_line2": "2 31433  98.4103 252.0731 0100293  23.8359   6.1837 14.25455470955805"
      },
      "geometry": {
        "type": "Point",
        "coordinates": [
          -105.62239905105083,
          -7.837571441644783
        ]
      }
    },
    {
      "type": "Feature",
      "properties": {
        "norad_id": 31435,
        "name": "FENGYUN 1C DEB",
        "group": "fengyun-1c-debris",
        "lat": 23.126914027623346,
        "lon": 158.04334893414122,
        "alt_km": 802.2171120701114,
        "timestamp": "2025-12-15T20:48:54.166168+00:00",
        "meta_object_name": "FENGYUN 1C DEB",
        "meta_object_id": "1999-025BTX",
        "meta_epoch": "2025-12-14T05:03:03.781152",
        "meta_mean_motion": 14.53441825,
        "meta_eccentricity": 0.01491008,
        "meta_inclination": 99.0362,
        "meta_ra_of_asc_node": 160.1544,
        "meta_arg_of_pericenter": 175.5686,
        "meta_mean_anomaly": 184.6869,
        "meta_ephemeris_type": 0,
        "meta_classification_type": "U",
        "meta_norad_cat_id": 31435,
        "meta_element_set_no": 999,
        "meta_rev_at_epoch": 98394,
        "meta_bstar": 0.00032881799,
        "meta_mean_motion_dot": 1.526e-05,
        "meta_mean_motion_ddot": 0,
        "tle_line1": "1 31435U 99025BTX 25348.21046043  .00001526  00000+0  32882-3 0  9992",
        "tle_line2": "2 31435  99.0362 160.1544 0149100 175.5686 184.6869 14.53441825983943"
      },
      "geometry": {
        "type": "Point",
        "coordinates": [
          158.04334893414122,
          23.126914027623346
        ]
      }
    },
    {
      "type": "Feature",
      "properties": {
        "norad_id": 31436,
        "name": "FENGYUN 1C DEB",
        "group": "fengyun-1c-debris",
        "lat": 70.63761416895223,
        "lon": 176.79938473491612,
        "alt_km": 606.6635040976898,
        "timestamp": "2025-12-15T20:48:54.166178+00:00",
        "meta_object_name": "FENGYUN 1C DEB",
        "meta_object_id": "1999-025BTY",
        "meta_epoch": "2025-12-14T14:13:51.699072",
        "meta_mean_motion": 14.93912405,
        "meta_eccentricity": 0.00430027,
        "meta_inclination": 98.8807,
        "meta_ra_of_asc_node": 201.7793,
        "meta_arg_of_pericenter": 236.6526,
        "meta_mean_anomaly": 186.6937,
        "meta_ephemeris_type": 0,
        "meta_classification_type": "U",
        "meta_norad_cat_id": 31436,
        "meta_element_set_no": 999,
        "meta_rev_at_epoch": 96904,
        "meta_bstar": 0.0034508328,
        "meta_mean_motion_dot": 0.00037487,
        "meta_mean_motion_ddot": 0,
        "tle_line1": "1 31436U 99025BTY 25348.59295948  .00037487  00000+0  34508-2 0  9995",
        "tle_line2": "2 31436  98.8807 201.7793 0043002 236.6526 186.6937 14.93912405969043"
      },
      "geometry": {
        "type": "Point",
        "coordinates": [
          176.79938473491612,
          70.63761416895223
        ]
      }
    },
    {
      "type": "Feature",
      "properties": {
        "norad_id": 31437,
        "name": "FENGYUN 1C DEB",
        "group": "fengyun-1c-debris",
        "lat": 80.78908360952559,
        "lon": -34.696474052897536,
        "alt_km": 751.9276396329005,
        "timestamp": "2025-12-15T20:48:54.166188+00:00",
        "meta_object_name": "FENGYUN 1C DEB",
        "meta_object_id": "1999-025BTZ",
        "meta_epoch": "2025-12-14T04:26:04.938432",
        "meta_mean_motion": 14.42542216,
        "meta_eccentricity": 0.00157691,
        "meta_inclination": 98.8649,
        "meta_ra_of_asc_node": 69.3084,
        "meta_arg_of_pericenter": 243.8583,
        "meta_mean_anomaly": 116.0983,
        "meta_ephemeris_type": 0,
        "meta_classification_type": "U",
        "meta_norad_cat_id": 31437,
        "meta_element_set_no": 999,
        "meta_rev_at_epoch": 96531,
        "meta_bstar": 0.002431224,
        "meta_mean_motion_dot": 8.038e-05,
        "meta_mean_motion_ddot": 0,
        "tle_line1": "1 31437U 99025BTZ 25348.18477938  .00008038  00000+0  24312-2 0  9994",
        "tle_line2": "2 31437  98.8649  69.3084 0015769 243.8583 116.0983 14.42542216965318"
      },
      "geometry": {
        "type": "Point",
        "coordinates": [
          -34.696474052897536,
          80.78908360952559
        ]
      }
    },
    {
      "type": "Feature",
      "properties": {
        "norad_id": 31439,
        "name": "FENGYUN 1C DEB",
        "group": "fengyun-1c-debris",
        "lat": 67.99716618499039,
        "lon": -27.072331902036613,
        "alt_km": 889.5152735603006,
        "timestamp": "2025-12-15T20:48:54.166198+00:00",
        "meta_object_name": "FENGYUN 1C DEB",
        "meta_object_id": "1999-025BUB",
        "meta_epoch": "2025-12-14T19:30:52.214976",
        "meta_mean_motion": 13.95582712,
        "meta_eccentricity": 0.01379448,
        "meta_inclination": 98.9167,
        "meta_ra_of_asc_node": 354.7696,
        "meta_arg_of_pericenter": 156.1199,
        "meta_mean_anomaly": 21.8354,
        "meta_ephemeris_type": 0,
        "meta_classification_type": "U",
        "meta_norad_cat_id": 31439,
        "meta_element_set_no": 999,
        "meta_rev_at_epoch": 63261,
        "meta_bstar": 0.0005641024,
        "meta_mean_motion_dot": 7.89e-06,
        "meta_mean_motion_ddot": 0,
        "tle_line1": "1 31439U 99025BUB 25348.81310434  .00000789  00000+0  56410-3 0  9993",
        "tle_line2": "2 31439  98.9167 354.7696 0137944 156.1199  21.8354 13.95582712632616"
      },
      "geometry": {
        "type": "Point",
        "coordinates": [
          -27.072331902036613,
          67.99716618499039
        ]
      }
    }
  ]
}